NORAD_CAT_ID,OBJECT_NAME,OBJECT_TYPE,EPOCH,MEAN_MOTION,ECCENTRICITY,INCLINATION,RA_OF_ASC_NODE,ARG_OF_PERICENTER,MEAN_ANOMALY,BSTAR,MEAN_MOTION_DOT,MEAN_MOTION_DDOT,TLE_LINE0,TLE_LINE1,TLE_LINE2,SEMIMAJOR_AXIS,PERIOD,APOGEE,PERIGEE,DECAYED
54759.0,STARLINK-5215,PAYLOAD,2023-02-19 14:00:01,15.08848991,0.0001096,53.216,0.5347,94.0504,25.6715,0.00096634,0.00015129,0.0,0 STARLINK-5215,1 54759U 22175B   23050.58334491  .00015129  00000-0  96634-3 0  9993,2 54759  53.2160   0.5347 0001096  94.0504  25.6715 15.08848991  1309,6917.853,95.437,540.476,538.96,0.0
54759.0,STARLINK-5215,PAYLOAD,2023-02-19 18:00:02,15.08832066,0.0001128,53.2158,359.786,100.9341,204.6615,0.0048279,0.00077375,0.0,0 STARLINK-5215,1 54759U 22175B   23050.75002315  .00077375  00000-0  48279-2 0  9991,2 54759  53.2158 359.7860 0001128 100.9341 204.6615 15.08832066  9668,6917.905,95.438,540.55,538.989,0.0
54759.0,STARLINK-5215,PAYLOAD,2023-02-20 10:00:00,15.08823831,0.0001139,53.2155,356.7946,107.5483,221.2399,0.00071432,0.00011094,0.0,0 STARLINK-5215,1 54759U 22175B   23051.41667824  .00011094  00000-0  71432-3 0  9991,2 54759  53.2155 356.7946 0001139 107.5483 221.2399 15.08823831  9764,6917.93,95.439,540.583,539.007,0.0
54759.0,STARLINK-5215,PAYLOAD,2023-02-20 14:00:01,15.08828432,0.0001187,53.2158,356.0456,114.6319,39.9479,0.0013862,0.00021835,0.0,0 STARLINK-5215,1 54759U 22175B   23051.58334491  .00021835  00000-0  13862-2 0  9996,2 54759  53.2158 356.0456 0001187 114.6319  39.9479 15.08828432  1303,6917.916,95.438,540.602,538.96,0.0
54759.0,STARLINK-5215,PAYLOAD,2023-02-21 05:12:56,15.08866442,9.78e-05,53.217,353.1991,107.5919,252.518,6.0015e-06,-1.92e-06,0.0,0 STARLINK-5215,1 54759U 22175B   23052.21731526 -.00000192  00000-0  60015-5 0  9996,2 54759  53.2170 353.1991 0000978 107.5919 252.5180 15.08866442  9889,6917.8,95.436,540.341,538.988,0.0
54759.0,STARLINK-5215,PAYLOAD,2023-02-21 19:31:25,15.08843953,0.0001006,53.2187,350.5231,106.9288,253.1814,-4.1141e-05,-9.43e-06,0.0,0 STARLINK-5215,1 54759U 22175B   23052.81348667 -.00000943  00000-0 -41141-4 0  9995,2 54759  53.2187 350.5231 0001006 106.9288 253.1814 15.08843953  9973,6917.868,95.437,540.429,539.037,0.0
54759.0,STARLINK-5215,PAYLOAD,2023-02-22 03:28:20,15.0885779,0.0001279,53.2171,349.0364,100.088,260.0256,-8.3806e-05,-1.622e-05,0.0,0 STARLINK-5215,1 54759U 22175B   23053.14467880 -.00001622  00000-0 -83806-4 0  9990,2 54759  53.2171 349.0364 0001279 100.0880 260.0256 15.08857790 10020,6917.826,95.436,540.576,538.806,0.0
54759.0,STARLINK-5215,PAYLOAD,2023-02-22 19:22:13,15.0882948,0.0001382,53.2172,346.0639,88.7834,271.3317,-4.0141e-05,-9.27e-06,0.0,0 STARLINK-5215,1 54759U 22175B   23053.80709571 -.00000927  00000-0 -40141-4 0  9991,2 54759  53.2172 346.0639 0001382  88.7834 271.3317 15.08829480 10128,6917.913,95.438,540.734,538.821,0.0
54759.0,STARLINK-5215,PAYLOAD,2023-02-23 04:54:31,15.08839007,0.0001219,53.2168,344.2772,94.0135,266.0997,-7.8981e-05,-1.545e-05,0.0,0 STARLINK-5215,1 54759U 22175B   23054.20453122 -.00001545  00000-0 -78981-4 0  9994,2 54759  53.2168 344.2772 0001219  94.0135 266.0997 15.08839007 10181,6917.883,95.438,540.592,538.905,0.0
54759.0,STARLINK-5215,PAYLOAD,2023-02-23 19:12:59,15.08844755,0.0001192,53.2171,341.6016,83.9894,276.1234,3.3454e-05,2.45e-06,0.0,0 STARLINK-5215,1 54759U 22175B   23054.80068521  .00000245  00000-0  33454-4 0  9995,2 54759  53.2171 341.6016 0001192  83.9894 276.1234 15.08844755 12438,6917.866,95.437,540.555,538.906,0.0
54759.0,STARLINK-5215,PAYLOAD,2023-02-24 01:34:30,15.08860129,0.0001219,53.2169,340.4123,79.014,281.0989,0.00014593,2.037e-05,0.0,0 STARLINK-5215,1 54759U 22175B   23055.06563067  .00002037  00000-0  14593-3 0  9992,2 54759  53.2169 340.4123 0001219  79.0140 281.0989 15.08860129 10311,6917.819,95.436,540.527,538.841,0.0
54759.0,STARLINK-5215,PAYLOAD,2023-02-24 04:45:16,15.08864584,0.0001282,53.2172,339.8185,79.7287,280.385,0.00021544,3.145e-05,0.0,0 STARLINK-5215,1 54759U 22175B   23055.19810444  .00003145  00000-0  21544-3 0  9995,2 54759  53.2172 339.8185 0001282  79.7287 280.3850 15.08864584 12493,6917.805,95.436,540.557,538.783,0.0
54759.0,STARLINK-5215,PAYLOAD,2023-02-24 20:39:09,15.08832997,0.0001174,53.2167,336.8431,71.2546,288.8573,2.9601e-05,1.83e-06,0.0,0 STARLINK-5215,1 54759U 22175B   23055.86053114  .00000183  00000-0  29601-4 0  9994,2 54759  53.2167 336.8431 0001174  71.2546 288.8573 15.08832997 12592,6917.902,95.438,540.579,538.955,0.0
54759.0,STARLINK-5215,PAYLOAD,2023-02-25 01:25:19,15.08835757,0.0001136,53.2167,335.9512,73.4465,286.6652,5.265e-05,5.5e-06,0.0,0 STARLINK-5215,1 54759U 22175B   23056.05924928  .00000550  00000-0  52650-4 0  9994,2 54759  53.2167 335.9512 0001136  73.4465 286.6652 15.08835757 10469,6917.893,95.438,540.544,538.972,0.0
54759.0,STARLINK-5215,PAYLOAD,2023-02-25 04:36:05,15.08840086,0.0001192,53.2171,335.3568,75.4132,284.6993,8.7478e-05,1.105e-05,0.0,0 STARLINK-5215,1 54759U 22175B   23056.19172612  .00001105  00000-0  87478-4 0  9997,2 54759  53.2171 335.3568 0001192  75.4132 284.6993 15.08840086 12643,6917.88,95.438,540.57,538.921,0.0
54759.0,STARLINK-5215,PAYLOAD,2023-02-26 04:26:51,15.08849958,0.0001188,53.2168,330.8975,69.5931,290.5189,4.8556e-05,4.85e-06,0.0,0 STARLINK-5215,1 54759U 22175B   23057.18532217  .00000485  00000-0  48556-4 0  9992,2 54759  53.2168 330.8975 0001188  69.5931 290.5189 15.08849958 10634,6917.85,95.437,540.537,538.893,0.0
54759.0,STARLINK-5215,PAYLOAD,2023-02-27 02:42:14,15.08862114,0.0001139,53.2172,326.7332,88.4881,271.6241,0.00026451,3.927e-05,0.0,0 STARLINK-5215,1 54759U 22175B   23058.11266354  .00003927  00000-0  26451-3 0  9995,2 54759  53.2172 326.7332 0001139  88.4881 271.6241 15.08862114 10773,6917.813,95.436,540.466,538.89,0.0
54759.0,STARLINK-5215,PAYLOAD,2023-02-27 17:00:42,15.08850383,0.000128,53.2171,324.0577,88.2625,271.8514,0.00018449,2.65e-05,0.0,0 STARLINK-5215,1 54759U 22175B   23058.70883073  .00002650  00000-0  18449-3 0  9993,2 54759  53.2171 324.0577 0001280  88.2625 271.8514 15.08850383 10865,6917.849,95.437,540.599,538.828,0.0
54759.0,STARLINK-5215,PAYLOAD,2023-02-27 20:11:29,15.08855939,0.0001059,53.2166,323.4622,81.0008,279.1104,6.5796e-05,7.6e-06,0.0,0 STARLINK-5215,1 54759U 22175B   23058.84131056  .00000760  00000-0  65796-4 0  9993,2 54759  53.2166 323.4622 0001059  81.0008 279.1104 15.08855939 13044,6917.832,95.437,540.429,538.964,0.0
54759.0,STARLINK-5215,PAYLOAD,2023-02-28 02:33:01,15.08861322,0.0001787,53.2176,322.276,80.8256,279.2938,0.00013853,1.919e-05,0.0,0 STARLINK-5215,1 54759U 22175B   23059.10626299  .00001919  00000-0  13853-3 0  9994,2 54759  53.2176 322.2760 0001787  80.8256 279.2938 15.08861322 10928,6917.815,95.436,540.916,538.444,0.0
54759.0,STARLINK-5215,PAYLOAD,2023-02-28 21:37:43,15.08806871,0.0001061,53.2162,318.7045,89.0786,271.0328,-0.00048953,-8.063e-05,0.0,0 STARLINK-5215,1 54759U 22175B   23059.90120278 -.00008063  00000-0 -48953-3 0  9996,2 54759  53.2162 318.7045 0001061  89.0786 271.0328 15.08806871 13208,6917.982,95.44,540.581,539.113,0.0
54759.0,STARLINK-5215,PAYLOAD,2023-02-28 23:13:07,15.0880395,0.0001102,53.2161,318.4068,82.6708,277.441,-0.00050732,-8.345e-05,0.0,0 STARLINK-5215,1 54759U 22175B   23059.96744640 -.00008345  00000-0 -50732-3 0  9998,2 54759  53.2161 318.4068 0001102  82.6708 277.4410 15.08803950 11056,6917.991,95.44,540.618,539.093,0.0
54759.0,STARLINK-5215,PAYLOAD,2023-03-01 08:45:22,15.08849303,0.0001375,53.2173,316.6238,87.0582,273.0567,-7.9133e-05,-1.547e-05,0.0,0 STARLINK-5215,1 54759U 22175B   23060.36484939 -.00001547  00000-0 -79133-4 0  9990,2 54759  53.2173 316.6238 0001375  87.0582 273.0567 15.08849303 11113,6917.852,95.437,540.668,538.766,0.0
54759.0,STARLINK-5215,PAYLOAD,2023-03-01 21:28:27,15.08855709,0.000157,53.2175,314.2477,57.3197,302.7946,0.00014007,1.943e-05,0.0,0 STARLINK-5215,1 54759U 22175B   23060.89475935  .00001943  00000-0  14007-3 0  9990,2 54759  53.2175 314.2477 0001570  57.3197 302.7946 15.08855709 13359,6917.832,95.437,540.783,538.611,0.0
54759.0,STARLINK-5215,PAYLOAD,2023-03-02 02:14:35,15.08870743,0.0001358,53.2173,313.352,82.2633,277.8513,0.00021067,3.069e-05,0.0,0 STARLINK-5215,1 54759U 22175B   23061.09346511  .00003069  00000-0  21067-3 0  9995,2 54759  53.2173 313.3520 0001358  82.2633 277.8513 15.08870743 11223,6917.786,95.436,540.591,538.712,0.0
54759.0,STARLINK-5215,PAYLOAD,2023-03-02 03:49:58,15.08875689,0.0001253,53.2179,313.0552,68.0126,292.0999,0.00020432,2.968e-05,0.0,0 STARLINK-5215,1 54759U 22175B   23061.15970120  .00002968  00000-0  20432-3 0  9993,2 54759  53.2179 313.0552 0001253  68.0126 292.0999 15.08875689 13395,6917.771,95.435,540.503,538.77,0.0
54759.0,STARLINK-5215,PAYLOAD,2023-03-03 03:40:48,15.08839336,0.0001737,53.2193,308.5951,97.986,262.1329,0.00030953,4.641e-05,0.0,0 STARLINK-5215,1 54759U 22175B   23062.15333417  .00004641  00000-0  30953-3 0  9995,2 54759  53.2193 308.5951 0001737  97.9860 262.1329 15.08839336 11387,6917.882,95.438,540.949,538.546,0.0
54759.0,STARLINK-5215,PAYLOAD,2023-03-03 22:45:24,15.08869939,0.0001513,53.2178,305.0265,89.0205,271.096,5.3306e-06,-2.03e-06,0.0,0 STARLINK-5215,1 54759U 22175B   23062.94819677 -.00000203  00000-0  53306-5 0  9999,2 54759  53.2178 305.0265 0001513  89.0205 271.0960 15.08869939 11503,6917.789,95.436,540.701,538.607,0.0
54759.0,STARLINK-5215,PAYLOAD,2023-03-04 01:56:09,15.08880341,0.0001355,53.2174,304.4309,80.7071,279.4075,8.1213e-05,1.006e-05,0.0,0 STARLINK-5215,1 54759U 22175B   23063.08066438  .00001006  00000-0  81213-4 0  9992,2 54759  53.2174 304.4309 0001355  80.7071 279.4075 15.08880341 11525,6917.757,95.435,540.559,538.685,0.0
54759.0,STARLINK-5215,PAYLOAD,2023-03-04 22:36:12,15.0882987,0.0001075,53.2153,300.5668,119.5258,240.5842,-0.00020226,-3.504e-05,0.0,0 STARLINK-5215,1 54759U 22175B   23063.94181600 -.00003504  00000-0 -20226-3 0  9999,2 54759  53.2153 300.5668 0001075 119.5258 240.5842 15.08829870 11659,6917.911,95.438,540.52,539.033,0.0
